{"type": "FeatureCollection", "description": "INVENTED lake for tests and demos. Not a real place.", "bbox": [-105.208634, 49.864954, -104.790196, 50.134666], "features": [
  {"type": "Feature", "id": "lake-1", "properties": {"name": "Lake One"}, "geometry": {"type": "Polygon", "coordinates": [[[-105.055765, 49.97751], [-105.044263, 49.976877], [-105.038857, 49.970325], [-105.038328, 49.964032], [-105.038243, 49.957514], [-105.043891, 49.950794], [-105.055733, 49.94964], [-105.065143, 49.953509], [-105.070226, 49.958622], [-105.075262, 49.964014], [-105.074469, 49.970982], [-105.066219, 49.975698], [-105.055765, 49.97751]], [[-105.058538, 49.964922], [-105.057141, 49.961776], [-105.052961, 49.963127], [-105.054358, 49.965823], [-105.058538, 49.964922]]]}}
]}
